{
    "links": {
        "self": "http://www.neowsapp.com/rest/v1/neo/54097973?api_key=iIulBulltgU6a56xZRHN4H3l9WmuAYTsLGpBGhQ2"
    },
    "id": "54097973",
    "neo_reference_id": "54097973",
    "name": "(2020 XW)",
    "designation": "2020 XW",
    "nasa_jpl_url": "http://ssd.jpl.nasa.gov/sbdb.cgi?sstr=54097973",
    "absolute_magnitude_h": 24.493,
    "estimated_diameter": {
        "kilometers": {
            "estimated_diameter_min": 0.033570281,
            "estimated_diameter_max": 0.0750654304
        },
        "meters": {
            "estimated_diameter_min": 33.5702810063,
            "estimated_diameter_max": 75.0654303539
        },
        "miles": {
            "estimated_diameter_min": 0.0208595991,
            "estimated_diameter_max": 0.0466434815
        },
        "feet": {
            "estimated_diameter_min": 110.1387207368,
            "estimated_diameter_max": 246.2776665224
        }
    },
    "is_potentially_hazardous_asteroid": false,
    "close_approach_data": [
        {
            "close_approach_date": "1995-01-02",
            "close_approach_date_full": "1995-Jan-02 18:50",
            "epoch_date_close_approach": 789072600000,
            "relative_velocity": {
                "kilometers_per_second": "12.3994550082",
                "kilometers_per_hour": "44638.0380295718",
                "miles_per_hour": "27736.3409078748"
            },
            "miss_distance": {
                "astronomical": "0.2490090433",
                "lunar": "96.8645178437",
                "kilometers": "37251222.488417771",
                "miles": "23146836.3212403998"
            },
            "orbiting_body": "Earth"
        },
        {
            "close_approach_date": "1997-03-27",
            "close_approach_date_full": "1997-Mar-27 06:47",
            "epoch_date_close_approach": 859445220000,
            "relative_velocity": {
                "kilometers_per_second": "8.0034493568",
                "kilometers_per_hour": "28812.4176846567",
                "miles_per_hour": "17902.9158663357"
            },
            "miss_distance": {
                "astronomical": "0.0261718758",
                "lunar": "10.1808596862",
                "kilometers": "3915256.873584546",
                "miles": "2432827.8095208948"
            },
            "orbiting_body": "Mars"
        },
        {
            "close_approach_date": "2020-12-12",
            "close_approach_date_full": "2020-Dec-12 01:06",
            "epoch_date_close_approach": 1607735160000,
            "relative_velocity": {
                "kilometers_per_second": "5.8568489371",
                "kilometers_per_hour": "21084.656173489",
                "miles_per_hour": "13101.1853873549"
            },
            "miss_distance": {
                "astronomical": "0.0511066364",
                "lunar": "19.8804815596",
                "kilometers": "7645443.948304468",
                "miles": "4750658.5785109384"
            },
            "orbiting_body": "Earth"
        }
    ],
    "orbital_data": {
        "orbit_id": "1",
        "orbit_determination_date": "2020-12-07 01:12:05",
        "first_observation_date": "2020-12-05",
        "last_observation_date": "2020-12-07",
        "data_arc_in_days": 2,
        "observations_used": 21,
        "orbit_uncertainty": "8",
        "minimum_orbit_intersection": ".011777",
        "jupiter_tisserand_invariant": "4.453",
        "epoch_osculation": "2459189.5",
        "eccentricity": ".3417727578722922",
        "semi_major_axis": "1.512333130668682",
        "inclination": "1.750132138949453",
        "ascending_node_longitude": "33.28927695446133",
        "orbital_period": "679.3125317414865",
        "perihelion_distance": ".9954588657784093",
        "perihelion_argument": "24.17488354094703",
        "aphelion_distance": "2.029207395558956",
        "perihelion_time": "2459177.448860893127",
        "mean_anomaly": "6.386471433630594",
        "mean_motion": ".5299475325107039",
        "equinox": "J2000",
        "orbit_class": {
            "orbit_class_type": "APO",
            "orbit_class_description": "Near-Earth asteroid orbits which cross the Earth’s orbit similar to that of 1862 Apollo",
            "orbit_class_range": "a (semi-major axis) > 1.0 AU; q (perihelion) < 1.017 AU"
        }
    },
    "is_sentry_object": false
}